{
  "type": "FeatureCollection",
  "features": [
    {
      "type": "Feature",
      "properties": {
        "norad_id": 33886,
        "name": "IRIDIUM 33 DEB",
        "group": "iridium-33-debris",
        "lat": -63.70770952328372,
        "lon": -102.11674981887442,
        "alt_km": 771.2924143410901,
        "timestamp": "2025-12-04T21:36:16.256910+00:00",
        "meta_object_name": "IRIDIUM 33 DEB",
        "meta_object_id": "1997-051BF",
        "meta_epoch": "2025-12-04T16:01:07.166784",
        "meta_mean_motion": 14.3603684,
        "meta_eccentricity": 0.00120788,
        "meta_inclination": 86.3832,
        "meta_ra_of_asc_node": 70.626,
        "meta_arg_of_pericenter": 272.7553,
        "meta_mean_anomaly": 208.7294,
        "meta_ephemeris_type": 0,
        "meta_classification_type": "U",
        "meta_norad_cat_id": 33886,
        "meta_element_set_no": 999,
        "meta_rev_at_epoch": 87936,
        "meta_bstar": 0.00040080277,
        "meta_mean_motion_dot": 1.185e-05,
        "meta_mean_motion_ddot": 0,
        "tle_line1": "1 33886U 97051BF  25338.66744406  .00001185  00000+0  40080-3 0  9997",
        "tle_line2": "2 33886  86.3832  70.6260 0012078 272.7553 208.7294 14.36036840879360"
      },
      "geometry": {
        "type": "Point",
        "coordinates": [
          -102.11674981887442,
          -63.70770952328372
        ]
      }
    },
    {
      "type": "Feature",
      "properties": {
        "norad_id": 33887,
        "name": "IRIDIUM 33 DEB",
        "group": "iridium-33-debris",
        "lat": 32.68873471167735,
        "lon": -175.60578460445734,
        "alt_km": 767.2100603139788,
        "timestamp": "2025-12-04T21:36:16.256920+00:00",
        "meta_object_name": "IRIDIUM 33 DEB",
        "meta_object_id": "1997-051BG",
        "meta_epoch": "2025-12-04T02:49:23.956896",
        "meta_mean_motion": 14.37209414,
        "meta_eccentricity": 0.00040371,
        "meta_inclination": 86.3051,
        "meta_ra_of_asc_node": 7.1078,
        "meta_arg_of_pericenter": 267.9412,
        "meta_mean_anomaly": 152.9243,
        "meta_ephemeris_type": 0,
        "meta_classification_type": "U",
        "meta_norad_cat_id": 33887,
        "meta_element_set_no": 999,
        "meta_rev_at_epoch": 88041,
        "meta_bstar": 0.00026791584,
        "meta_mean_motion_dot": 8.17e-06,
        "meta_mean_motion_ddot": 0,
        "tle_line1": "1 33887U 97051BG  25338.11763839  .00000817  00000+0  26792-3 0  9994",
        "tle_line2": "2 33887  86.3051   7.1078 0004037 267.9412 152.9243 14.37209414880414"
      },
      "geometry": {
        "type": "Point",
        "coordinates": [
          -175.60578460445734,
          32.68873471167735
        ]
      }
    },
    {
      "type": "Feature",
      "properties": {
        "norad_id": 33953,
        "name": "IRIDIUM 33 DEB",
        "group": "iridium-33-debris",
        "lat": -34.355525151408195,
        "lon": -120.3418877891422,
        "alt_km": 714.4684633156021,
        "timestamp": "2025-12-04T21:36:16.256931+00:00",
        "meta_object_name": "IRIDIUM 33 DEB",
        "meta_object_id": "1997-051BN",
        "meta_epoch": "2025-12-04T16:22:27.124032",
        "meta_mean_motion": 14.55195443,
        "meta_eccentricity": 0.00185376,
        "meta_inclination": 86.3854,
        "meta_ra_of_asc_node": 57.2761,
        "meta_arg_of_pericenter": 127.3963,
        "meta_mean_anomaly": 25.7835,
        "meta_ephemeris_type": 0,
        "meta_classification_type": "U",
        "meta_norad_cat_id": 33953,
        "meta_element_set_no": 999,
        "meta_rev_at_epoch": 88186,
        "meta_bstar": 0.003083952,
        "meta_mean_motion_dot": 0.00013398,
        "meta_mean_motion_ddot": 0,
        "tle_line1": "1 33953U 97051BN  25338.68225838  .00013398  00000+0  30840-2 0  9998",
        "tle_line2": "2 33953  86.3854  57.2761 0018537 127.3963  25.7835 14.55195443881864"
      },
      "geometry": {
        "type": "Point",
        "coordinates": [
          -120.3418877891422,
          -34.355525151408195
        ]
      }
    },
    {
      "type": "Feature",
      "properties": {
        "norad_id": 33960,
        "name": "IRIDIUM 33 DEB",
        "group": "iridium-33-debris",
        "lat": -82.96983200481164,
        "lon": 145.30890312705515,
        "alt_km": 627.2173945396107,
        "timestamp": "2025-12-04T21:36:16.256941+00:00",
        "meta_object_name": "IRIDIUM 33 DEB",
        "meta_object_id": "1997-051BV",
        "meta_epoch": "2025-12-04T08:00:50.814144",
        "meta_mean_motion": 14.84493479,
        "meta_eccentricity": 0.00070442,
        "meta_inclination": 86.2531,
        "meta_ra_of_asc_node": 293.4746,
        "meta_arg_of_pericenter": 74.0008,
        "meta_mean_anomaly": 45.7445,
        "meta_ephemeris_type": 0,
        "meta_classification_type": "U",
        "meta_norad_cat_id": 33960,
        "meta_element_set_no": 999,
        "meta_rev_at_epoch": 88742,
        "meta_bstar": 0.0078775525,
        "meta_mean_motion_dot": 0.00066968,
        "meta_mean_motion_ddot": 0,
        "tle_line1": "1 33960U 97051BV  25338.33392146  .00066968  00000+0  78776-2 0  9996",
        "tle_line2": "2 33960  86.2531 293.4746 0007044  74.0008  45.7445 14.84493479887428"
      },
      "geometry": {
        "type": "Point",
        "coordinates": [
          145.30890312705515,
          -82.96983200481164
        ]
      }
    },
    {
      "type": "Feature",
      "properties": {
        "norad_id": 33966,
        "name": "IRIDIUM 33 DEB",
        "group": "iridium-33-debris",
        "lat": 39.26570254264489,
        "lon": -133.56408930483755,
        "alt_km": 723.0888683465218,
        "timestamp": "2025-12-04T21:36:16.256954+00:00",
        "meta_object_name": "IRIDIUM 33 DEB",
        "meta_object_id": "1997-051CB",
        "meta_epoch": "2025-12-04T14:56:24.662688",
        "meta_mean_motion": 14.49540808,
        "meta_eccentricity": 0.00065046,
        "meta_inclination": 86.3934,
        "meta_ra_of_asc_node": 49.5105,
        "meta_arg_of_pericenter": 217.124,
        "meta_mean_anomaly": 275.3967,
        "meta_ephemeris_type": 0,
        "meta_classification_type": "U",
        "meta_norad_cat_id": 33966,
        "meta_element_set_no": 999,
        "meta_rev_at_epoch": 88324,
        "meta_bstar": 0.0013164776,
        "meta_mean_motion_dot": 5.068e-05,
        "meta_mean_motion_ddot": 0,
        "tle_line1": "1 33966U 97051CB  25338.62250767  .00005068  00000+0  13165-2 0  9991",
        "tle_line2": "2 33966  86.3934  49.5105 0006504 217.1240 275.3967 14.49540808883245"
      },
      "geometry": {
        "type": "Point",
        "coordinates": [
          -133.56408930483755,
          39.26570254264489
        ]
      }
    },
    {
      "type": "Feature",
      "properties": {
        "norad_id": 34071,
        "name": "IRIDIUM 33 DEB",
        "group": "iridium-33-debris",
        "lat": -30.836038868069245,
        "lon": -156.5779681397592,
        "alt_km": 732.728396658521,
        "timestamp": "2025-12-04T21:36:16.256965+00:00",
        "meta_object_name": "IRIDIUM 33 DEB",
        "meta_object_id": "1997-051CE",
        "meta_epoch": "2025-12-04T15:39:54.142272",
        "meta_mean_motion": 14.49409257,
        "meta_eccentricity": 0.00095435,
        "meta_inclination": 86.3464,
        "meta_ra_of_asc_node": 21.3435,
        "meta_arg_of_pericenter": 129.5032,
        "meta_mean_anomaly": 230.7017,
        "meta_ephemeris_type": 0,
        "meta_classification_type": "U",
        "meta_norad_cat_id": 34071,
        "meta_element_set_no": 999,
        "meta_rev_at_epoch": 88217,
        "meta_bstar": 0.0013811651,
        "meta_mean_motion_dot": 5.304e-05,
        "meta_mean_motion_ddot": 0,
        "tle_line1": "1 34071U 97051CE  25338.65270998  .00005304  00000+0  13812-2 0  9992",
        "tle_line2": "2 34071  86.3464  21.3435 0009543 129.5032 230.7017 14.49409257882170"
      },
      "geometry": {
        "type": "Point",
        "coordinates": [
          -156.5779681397592,
          -30.836038868069245
        ]
      }
    },
    {
      "type": "Feature",
      "properties": {
        "norad_id": 34077,
        "name": "IRIDIUM 33 DEB",
        "group": "iridium-33-debris",
        "lat": -18.516744349457262,
        "lon": 53.747796964661205,
        "alt_km": 682.3422839570258,
        "timestamp": "2025-12-04T21:36:16.256976+00:00",
        "meta_object_name": "IRIDIUM 33 DEB",
        "meta_object_id": "1997-051CL",
        "meta_epoch": "2025-12-04T11:54:33.329376",
        "meta_mean_motion": 14.64628595,
        "meta_eccentricity": 0.00109132,
        "meta_inclination": 86.3874,
        "meta_ra_of_asc_node": 55.138,
        "meta_arg_of_pericenter": 65.4241,
        "meta_mean_anomaly": 307.6407,
        "meta_ephemeris_type": 0,
        "meta_classification_type": "U",
        "meta_norad_cat_id": 34077,
        "meta_element_set_no": 999,
        "meta_rev_at_epoch": 88212,
        "meta_bstar": 0.0046253778,
        "meta_mean_motion_dot": 0.0002468,
        "meta_mean_motion_ddot": 0,
        "tle_line1": "1 34077U 97051CL  25338.49621909  .00024680  00000+0  46254-2 0  9996",
        "tle_line2": "2 34077  86.3874  55.1380 0010913  65.4241 307.6407 14.64628595882125"
      },
      "geometry": {
        "type": "Point",
        "coordinates": [
          53.747796964661205,
          -18.516744349457262
        ]
      }
    }
  ]
}